{
  "type": "FeatureCollection",
  "features": [
    {
      "type": "Feature",
      "properties": {
        "norad_id": 36442,
        "name": "COSMOS 2251 DEB",
        "group": "cosmos-2251-debris",
        "lat": 69.10888400424207,
        "lon": 81.97571919502971,
        "alt_km": 472.4426768057183,
        "timestamp": "2025-12-15T15:53:20.245326+00:00",
        "meta_object_name": "COSMOS 2251 DEB",
        "meta_object_id": "1993-036BAR",
        "meta_epoch": "2025-12-08T10:48:39.469248",
        "meta_mean_motion": 15.27762018,
        "meta_eccentricity": 0.00088131,
        "meta_inclination": 73.9528,
        "meta_ra_of_asc_node": 48.4206,
        "meta_arg_of_pericenter": 323.6974,
        "meta_mean_anomaly": 36.3628,
        "meta_ephemeris_type": 0,
        "meta_classification_type": "U",
        "meta_norad_cat_id": 36442,
        "meta_element_set_no": 999,
        "meta_rev_at_epoch": 85850,
        "meta_bstar": 0.005804433,
        "meta_mean_motion_dot": 0.00161056,
        "meta_mean_motion_ddot": 0,
        "tle_line1": "1 36442U 93036BAR 25342.45045682  .00161056  00000+0  58044-2 0  9991",
        "tle_line2": "2 36442  73.9528  48.4206 0008813 323.6974  36.3628 15.27762018858506"
      },
      "geometry": {
        "type": "Point",
        "coordinates": [
          81.97571919502971,
          69.10888400424207
        ]
      }
    },
    {
      "type": "Feature",
      "properties": {
        "norad_id": 36451,
        "name": "COSMOS 2251 DEB",
        "group": "cosmos-2251-debris",
        "lat": -54.42848594259425,
        "lon": 173.71248272986114,
        "alt_km": 819.7002602656148,
        "timestamp": "2025-12-15T15:53:20.245335+00:00",
        "meta_object_name": "COSMOS 2251 DEB",
        "meta_object_id": "1993-036BBA",
        "meta_epoch": "2025-12-08T10:10:07.447584",
        "meta_mean_motion": 14.18724413,
        "meta_eccentricity": 0.01840749,
        "meta_inclination": 73.9539,
        "meta_ra_of_asc_node": 342.9701,
        "meta_arg_of_pericenter": 168.3937,
        "meta_mean_anomaly": 192.1542,
        "meta_ephemeris_type": 0,
        "meta_classification_type": "U",
        "meta_norad_cat_id": 36451,
        "meta_element_set_no": 999,
        "meta_rev_at_epoch": 84164,
        "meta_bstar": 0.0010726423,
        "meta_mean_motion_dot": 2.61e-05,
        "meta_mean_motion_ddot": 0,
        "tle_line1": "1 36451U 93036BBA 25342.42369731  .00002610  00000+0  10726-2 0  9997",
        "tle_line2": "2 36451  73.9539 342.9701 0184074 168.3937 192.1542 14.18724413841646"
      },
      "geometry": {
        "type": "Point",
        "coordinates": [
          173.71248272986114,
          -54.42848594259425
        ]
      }
    },
    {
      "type": "Feature",
      "properties": {
        "norad_id": 36453,
        "name": "COSMOS 2251 DEB",
        "group": "cosmos-2251-debris",
        "lat": 50.530132897335584,
        "lon": -53.661967592694126,
        "alt_km": 700.5521854815152,
        "timestamp": "2025-12-15T15:53:20.245344+00:00",
        "meta_object_name": "COSMOS 2251 DEB",
        "meta_object_id": "1993-036BBC",
        "meta_epoch": "2025-12-14T21:50:20.335776",
        "meta_mean_motion": 14.5262544,
        "meta_eccentricity": 0.00704026,
        "meta_inclination": 73.9229,
        "meta_ra_of_asc_node": 148.2665,
        "meta_arg_of_pericenter": 51.0151,
        "meta_mean_anomaly": 103.2875,
        "meta_ephemeris_type": 0,
        "meta_classification_type": "U",
        "meta_norad_cat_id": 36453,
        "meta_element_set_no": 999,
        "meta_rev_at_epoch": 84499,
        "meta_bstar": 0.00063328924,
        "meta_mean_motion_dot": 2.649e-05,
        "meta_mean_motion_ddot": 0,
        "tle_line1": "1 36453U 93036BBC 25348.90995759  .00002649  00000+0  63329-3 0  9993",
        "tle_line2": "2 36453  73.9229 148.2665 0070402  51.0151 103.2875 14.52625440844996"
      },
      "geometry": {
        "type": "Point",
        "coordinates": [
          -53.661967592694126,
          50.530132897335584
        ]
      }
    },
    {
      "type": "Feature",
      "properties": {
        "norad_id": 36459,
        "name": "COSMOS 2251 DEB",
        "group": "cosmos-2251-debris",
        "lat": 47.85052591756112,
        "lon": 156.10143192139188,
        "alt_km": 736.003839046045,
        "timestamp": "2025-12-15T15:53:20.245354+00:00",
        "meta_object_name": "COSMOS 2251 DEB",
        "meta_object_id": "1993-036BBJ",
        "meta_epoch": "2025-12-08T08:14:17.711520",
        "meta_mean_motion": 14.26367403,
        "meta_eccentricity": 0.01135417,
        "meta_inclination": 74.048,
        "meta_ra_of_asc_node": 7.7381,
        "meta_arg_of_pericenter": 104.7075,
        "meta_mean_anomaly": 256.669,
        "meta_ephemeris_type": 0,
        "meta_classification_type": "U",
        "meta_norad_cat_id": 36459,
        "meta_element_set_no": 999,
        "meta_rev_at_epoch": 7819,
        "meta_bstar": 0.0018203568,
        "meta_mean_motion_dot": 4.661e-05,
        "meta_mean_motion_ddot": 0,
        "tle_line1": "1 36459U 93036BBJ 25342.34326055  .00004661  00000+0  18204-2 0  9995",
        "tle_line2": "2 36459  74.0480   7.7381 0113541 104.7075 256.6690 14.26367403 78192"
      },
      "geometry": {
        "type": "Point",
        "coordinates": [
          156.10143192139188,
          47.85052591756112
        ]
      }
    },
    {
      "type": "Feature",
      "properties": {
        "norad_id": 36470,
        "name": "COSMOS 2251 DEB",
        "group": "cosmos-2251-debris",
        "lat": -53.74972233724914,
        "lon": -134.9611990650546,
        "alt_km": 560.549447237081,
        "timestamp": "2025-12-15T15:53:20.245363+00:00",
        "meta_object_name": "COSMOS 2251 DEB",
        "meta_object_id": "1993-036BBV",
        "meta_epoch": "2025-12-14T09:52:58.313856",
        "meta_mean_motion": 15.07545191,
        "meta_eccentricity": 0.00222946,
        "meta_inclination": 73.8443,
        "meta_ra_of_asc_node": 250.9269,
        "meta_arg_of_pericenter": 79.5278,
        "meta_mean_anomaly": 280.8422,
        "meta_ephemeris_type": 0,
        "meta_classification_type": "U",
        "meta_norad_cat_id": 36470,
        "meta_element_set_no": 999,
        "meta_rev_at_epoch": 66119,
        "meta_bstar": 0.0037309319,
        "meta_mean_motion_dot": 0.00057452,
        "meta_mean_motion_ddot": 0,
        "tle_line1": "1 36470U 93036BBV 25348.41178604  .00057452  00000+0  37309-2 0  9990",
        "tle_line2": "2 36470  73.8443 250.9269 0022294  79.5278 280.8422 15.07545191661198"
      },
      "geometry": {
        "type": "Point",
        "coordinates": [
          -134.9611990650546,
          -53.74972233724914
        ]
      }
    },
    {
      "type": "Feature",
      "properties": {
        "norad_id": 36528,
        "name": "COSMOS 2251 DEB",
        "group": "cosmos-2251-debris",
        "lat": -66.49763256697621,
        "lon": 98.6602317585904,
        "alt_km": 805.107319204968,
        "timestamp": "2025-12-15T15:53:20.245372+00:00",
        "meta_object_name": "COSMOS 2251 DEB",
        "meta_object_id": "1993-036BCN",
        "meta_epoch": "2025-12-14T16:44:10.040352",
        "meta_mean_motion": 14.30658136,
        "meta_eccentricity": 0.00847741,
        "meta_inclination": 74.0159,
        "meta_ra_of_asc_node": 141.651,
        "meta_arg_of_pericenter": 190.7529,
        "meta_mean_anomaly": 169.1813,
        "meta_ephemeris_type": 0,
        "meta_classification_type": "U",
        "meta_norad_cat_id": 36528,
        "meta_element_set_no": 999,
        "meta_rev_at_epoch": 64455,
        "meta_bstar": 0.0012089622,
        "meta_mean_motion_dot": 3.261e-05,
        "meta_mean_motion_ddot": 0,
        "tle_line1": "1 36528U 93036BCN 25348.69733843  .00003261  00000+0  12090-2 0  9995",
        "tle_line2": "2 36528  74.0159 141.6510 0084774 190.7529 169.1813 14.30658136644553"
      },
      "geometry": {
        "type": "Point",
        "coordinates": [
          98.6602317585904,
          -66.49763256697621
        ]
      }
    },
    {
      "type": "Feature",
      "properties": {
        "norad_id": 36533,
        "name": "COSMOS 2251 DEB",
        "group": "cosmos-2251-debris",
        "lat": -67.41400417615829,
        "lon": 65.76077439438252,
        "alt_km": 702.25257857827,
        "timestamp": "2025-12-15T15:53:20.245381+00:00",
        "meta_object_name": "COSMOS 2251 DEB",
        "meta_object_id": "1993-036BCT",
        "meta_epoch": "2025-12-14T18:41:56.879520",
        "meta_mean_motion": 14.49825822,
        "meta_eccentricity": 0.00492341,
        "meta_inclination": 74.0115,
        "meta_ra_of_asc_node": 110.9921,
        "meta_arg_of_pericenter": 259.8044,
        "meta_mean_anomaly": 99.7561,
        "meta_ephemeris_type": 0,
        "meta_classification_type": "U",
        "meta_norad_cat_id": 36533,
        "meta_element_set_no": 999,
        "meta_rev_at_epoch": 84514,
        "meta_bstar": 0.00053811541,
        "meta_mean_motion_dot": 2.08e-05,
        "meta_mean_motion_ddot": 0,
        "tle_line1": "1 36533U 93036BCT 25348.77913055  .00002080  00000+0  53812-3 0  9991",
        "tle_line2": "2 36533  74.0115 110.9921 0049234 259.8044  99.7561 14.49825822845141"
      },
      "geometry": {
        "type": "Point",
        "coordinates": [
          65.76077439438252,
          -67.41400417615829
        ]
      }
    }
  ]
}